NORAD_CAT_ID,OBJECT_NAME,OBJECT_TYPE,EPOCH,MEAN_MOTION,ECCENTRICITY,INCLINATION,RA_OF_ASC_NODE,ARG_OF_PERICENTER,MEAN_ANOMALY,BSTAR,MEAN_MOTION_DOT,MEAN_MOTION_DDOT,TLE_LINE0,TLE_LINE1,TLE_LINE2,SEMIMAJOR_AXIS,PERIOD,APOGEE,PERIGEE,DECAYED
56790.0,STARLINK-6345,PAYLOAD,2024-06-12 04:34:15,14.98326362,0.0002824,70.0004,106.8251,270.5275,89.556,-4.3429e-06,-1.45e-06,0.0,0 STARLINK-6345,1 56790U 23078Z   24164.19046176 -.00000145  00000-0 -43429-5 0  9997,2 56790  70.0004 106.8251 0002824 270.5275  89.5560 14.98326362 58737,6950.204,96.107,574.032,570.106,0.0
56790.0,STARLINK-6345,PAYLOAD,2024-06-12 06:10:23,14.98327712,0.0002821,70.0005,106.6569,270.6309,89.4527,1.0306e-05,3e-07,0.0,0 STARLINK-6345,1 56790U 23078Z   24164.25722062  .00000030  00000-0  10306-4 0  9997,2 56790  70.0005 106.6569 0002821 270.6309  89.4527 14.98327712 58488,6950.2,96.107,574.026,570.104,0.0
56790.0,STARLINK-6345,PAYLOAD,2024-06-12 22:11:44,14.98331467,0.0002814,70.0007,104.9737,270.6831,89.4006,2.0832e-05,1.56e-06,0.0,0 STARLINK-6345,1 56790U 23078Z   24164.92481778  .00000156  00000-0  20832-4 0  9991,2 56790  70.0007 104.9737 0002814 270.6831  89.4006 14.98331467 58585,6950.188,96.107,574.009,570.098,0.0
56790.0,STARLINK-6345,PAYLOAD,2024-06-13 04:36:16,14.98332171,0.0002818,70.0008,104.3016,270.4901,89.5936,-5.5759e-06,-1.59e-06,0.0,0 STARLINK-6345,1 56790U 23078Z   24165.19185790 -.00000159  00000-0 -55759-5 0  9998,2 56790  70.0008 104.3016 0002818 270.4901  89.5936 14.98332171 58889,6950.186,96.107,574.01,570.093,0.0
56790.0,STARLINK-6345,PAYLOAD,2024-06-13 12:36:56,14.98330919,0.0002788,70.001,103.4596,270.894,89.19,-6.656e-06,-1.72e-06,0.0,0 STARLINK-6345,1 56790U 23078Z   24165.52565826 -.00000172  00000-0 -66560-5 0  9994,2 56790  70.0010 103.4596 0002788 270.8940  89.1900 14.98330919 58670,6950.19,96.107,573.993,570.117,0.0
56790.0,STARLINK-6345,PAYLOAD,2024-06-13 22:13:45,14.98330292,0.0002944,70.0004,102.4497,267.2933,92.7889,3.2363e-05,2.93e-06,0.0,0 STARLINK-6345,1 56790U 23078Z   24165.92621668  .00000293  00000-0  32363-4 0  9990,2 56790  70.0004 102.4497 0002944 267.2933  92.7889 14.98330292 58735,6950.192,96.107,574.103,570.011,0.0
56790.0,STARLINK-6345,PAYLOAD,2024-06-14 12:38:57,14.98332544,0.0002858,70.0008,100.9347,269.3452,90.738,5.698e-06,-2.5e-07,0.0,0 STARLINK-6345,1 56790U 23078Z   24166.52705525 -.00000025  00000-0  56980-5 0  9998,2 56790  70.0008 100.9347 0002858 269.3452  90.7380 14.98332544 58825,6950.185,96.107,574.036,570.064,0.0
56790.0,STARLINK-6345,PAYLOAD,2024-06-14 20:39:38,14.98329887,0.0002831,70.0009,100.0935,268.6919,91.3915,-2.4314e-05,-3.83e-06,0.0,0 STARLINK-6345,1 56790U 23078Z   24166.86085735 -.00000383  00000-0 -24314-4 0  9992,2 56790  70.0009 100.0935 0002831 268.6919  91.3915 14.98329887 58873,6950.193,96.107,574.026,570.091,0.0
56790.0,STARLINK-6345,PAYLOAD,2024-06-15 12:40:58,14.98331438,0.000284,70.0009,98.4109,268.9214,91.162,-1.3712e-05,-2.57e-06,0.0,0 STARLINK-6345,1 56790U 23078Z   24167.52845499 -.00000257  00000-0 -13712-4 0  9997,2 56790  70.0009  98.4109 0002840 268.9214  91.1620 14.98331438 58974,6950.188,96.107,574.027,570.08,0.0
56790.0,STARLINK-6345,PAYLOAD,2024-06-15 22:17:46,14.98331061,0.0002778,70.001,97.4016,268.7499,91.3342,-4.5416e-05,-6.35e-06,0.0,0 STARLINK-6345,1 56790U 23078Z   24167.92901601 -.00000635  00000-0 -45416-4 0  9995,2 56790  70.0010  97.4016 0002778 268.7499  91.3342 14.98331061 59038,6950.19,96.107,573.985,570.124,0.0
56790.0,STARLINK-6345,PAYLOAD,2024-06-16 12:42:59,14.98333027,0.0003115,69.9999,95.8854,269.3641,90.7161,-7.0607e-05,-9.35e-06,0.0,0 STARLINK-6345,1 56790U 23078Z   24168.52985332 -.00000935  00000-0 -70607-4 0  9998,2 56790  69.9999  95.8854 0003115 269.3641  90.7161 14.98333027 59121,6950.184,96.107,574.214,569.884,0.0
56790.0,STARLINK-6345,PAYLOAD,2024-06-16 22:19:48,14.98323608,0.000286,70.0004,94.8743,271.392,88.6911,-4.3926e-05,-6.17e-06,0.0,0 STARLINK-6345,1 56790U 23078Z   24168.93042010 -.00000617  00000-0 -43926-4 0  9991,2 56790  70.0004  94.8743 0002860 271.3920  88.6911 14.98323608 59185,6950.213,96.107,574.065,570.09,0.0
56790.0,STARLINK-6345,PAYLOAD,2024-06-17 20:45:40,14.98327107,0.0002971,70.0005,92.5186,270.8542,89.2277,5.1347e-05,5.2e-06,0.0,0 STARLINK-6345,1 56790U 23078Z   24169.86505600  .00000520  00000-0  51347-4 0  9990,2 56790  70.0005  92.5186 0002971 270.8542  89.2277 14.98327107 59583,6950.202,96.107,574.132,570.002,0.0
56790.0,STARLINK-6345,PAYLOAD,2024-06-17 22:21:48,14.98329446,0.0002837,70.0005,92.3502,271.8859,88.1975,1.2454e-05,5.6e-07,0.0,0 STARLINK-6345,1 56790U 23078Z   24169.93181598  .00000056  00000-0  12454-4 0  9994,2 56790  70.0005  92.3502 0002837 271.8859  88.1975 14.98329446 59330,6950.195,96.107,574.031,570.088,0.0
56790.0,STARLINK-6345,PAYLOAD,2024-06-18 04:46:20,14.98334542,0.0002863,70.0004,91.6773,270.0858,89.9973,5.0265e-05,5.07e-06,0.0,0 STARLINK-6345,1 56790U 23078Z   24170.19885128  .00000507  00000-0  50265-4 0  9997,2 56790  70.0004  91.6773 0002863 270.0858  89.9973 14.98334542 59633,6950.179,96.107,574.034,570.054,0.0
56790.0,STARLINK-6345,PAYLOAD,2024-06-18 19:11:33,14.98325374,0.0002868,70.0005,90.1623,272.2553,87.8278,5.2947e-05,5.39e-06,0.0,0 STARLINK-6345,1 56790U 23078Z   24170.79969655  .00000539  00000-0  52947-4 0  9995,2 56790  70.0005  90.1623 0002868 272.2553  87.8278 14.98325374 59721,6950.207,96.107,574.066,570.079,0.0
56790.0,STARLINK-6345,PAYLOAD,2024-06-18 20:47:41,14.9832515,0.0002872,70.0005,89.994,272.2356,87.8474,4.9197e-05,4.94e-06,0.0,0 STARLINK-6345,1 56790U 23078Z   24170.86645692  .00000494  00000-0  49197-4 0  9998,2 56790  70.0005  89.9940 0002872 272.2356  87.8474 14.98325150 59477,6950.208,96.107,574.069,570.077,0.0
56790.0,STARLINK-6345,PAYLOAD,2024-06-19 03:12:14,14.98328401,0.0002924,70.0006,89.3212,272.1486,87.9338,1.5686e-05,9.4e-07,0.0,0 STARLINK-6345,1 56790U 23078Z   24171.13349613  .00000094  00000-0  15686-4 0  9995,2 56790  70.0006  89.3212 0002924 272.1486  87.9338 14.98328401 59512,6950.198,96.107,574.095,570.031,0.0
56790.0,STARLINK-6345,PAYLOAD,2024-06-19 20:49:42,14.98332377,0.0002882,70.0006,87.4698,272.0445,88.0384,-1.0988e-05,-2.24e-06,0.0,0 STARLINK-6345,1 56790U 23078Z   24171.86785423 -.00000224  00000-0 -10988-4 0  9995,2 56790  70.0006  87.4698 0002882 272.0445  88.0384 14.98332377 59886,6950.186,96.107,574.054,570.047,0.0
56790.0,STARLINK-6345,PAYLOAD,2024-06-19 22:25:50,14.98332277,0.0002884,70.0007,87.3015,272.0534,88.0294,-1.1577e-05,-2.31e-06,0.0,0 STARLINK-6345,1 56790U 23078Z   24171.93461419 -.00000231  00000-0 -11577-4 0  9992,2 56790  70.0007  87.3015 0002884 272.0534  88.0294 14.98332277 59632,6950.186,96.107,574.055,570.046,0.0
56790.0,STARLINK-6345,PAYLOAD,2024-06-20 11:14:55,14.98331124,0.000279,70.001,85.9555,271.0972,88.9867,-2.7177e-05,-4.17e-06,0.0,0 STARLINK-6345,1 56790U 23078Z   24172.46869381 -.00000417  00000-0 -27177-4 0  9990,2 56790  70.0010  85.9555 0002790 271.0972  88.9867 14.98331124 59714,6950.189,96.107,573.994,570.115,0.0
56790.0,STARLINK-6345,PAYLOAD,2024-06-20 22:27:51,14.98326077,0.0002681,70.0012,84.7784,267.6096,92.4756,-2.0178e-05,-3.34e-06,0.0,0 STARLINK-6345,1 56790U 23078Z   24172.93601712 -.00000334  00000-0 -20178-4 0  9996,2 56790  70.0012  84.7784 0002681 267.6096  92.4756 14.98326077 60040,6950.205,96.107,573.933,570.207,0.0
56790.0,STARLINK-6345,PAYLOAD,2024-06-21 04:52:23,14.98328628,0.0002678,70.0011,84.1043,271.921,88.1642,8.2349e-06,5e-08,0.0,0 STARLINK-6345,1 56790U 23078Z   24173.20305535  .00000005  00000-0  82349-5 0  9993,2 56790  70.0011  84.1043 0002678 271.9210  88.1642 14.98328628 59827,6950.197,96.107,573.923,570.201,0.0
56790.0,STARLINK-6345,PAYLOAD,2024-06-21 22:29:52,14.98331225,0.000259,70.0011,82.2525,269.3627,90.7236,-1.7817e-05,-3.06e-06,0.0,0 STARLINK-6345,1 56790U 23078Z   24173.93741403 -.00000306  00000-0 -17817-4 0  9994,2 56790  70.0011  82.2525 0002590 269.3627  90.7236 14.98331225 59934,6950.189,96.107,573.854,570.254,0.0
56790.0,STARLINK-6345,PAYLOAD,2024-06-22 03:18:16,14.98331818,0.0002581,70.001,81.7474,269.1081,90.9782,-8.7088e-06,-1.97e-06,0.0,0 STARLINK-6345,1 56790U 23078Z   24174.13769318 -.00000197  00000-0 -87088-5 0  9998,2 56790  70.0010  81.7474 0002581 269.1081  90.9782 14.98331818 60222,6950.187,96.107,573.846,570.258,0.0
56790.0,STARLINK-6345,PAYLOAD,2024-06-22 22:31:53,14.98326436,0.0002695,70.0004,79.7271,269.9141,90.1709,2.3836e-05,1.91e-06,0.0,0 STARLINK-6345,1 56790U 23078Z   24174.93881533  .00000191  00000-0  23836-4 0  9992,2 56790  70.0004  79.7271 0002695 269.9141  90.1709 14.98326436 60083,6950.204,96.107,573.942,570.196,0.0
56790.0,STARLINK-6345,PAYLOAD,2024-06-23 03:20:17,14.98328635,0.0002714,70.0003,79.2219,269.7218,90.363,2.3088e-05,1.83e-06,0.0,0 STARLINK-6345,1 56790U 23078Z   24175.13909409  .00000183  00000-0  23088-4 0  9998,2 56790  70.0003  79.2219 0002714 269.7218  90.3630 14.98328635 60374,6950.197,96.107,573.948,570.176,0.0
56790.0,STARLINK-6345,PAYLOAD,2024-06-23 22:33:54,14.98334927,0.0002762,70.0,77.2028,267.8164,92.2678,2.6592e-05,2.24e-06,0.0,0 STARLINK-6345,1 56790U 23078Z   24175.94020845  .00000224  00000-0  26592-4 0  9994,2 56790  70.0000  77.2028 0002762 267.8164  92.2678 14.98334927 60238,6950.178,96.107,573.962,570.123,0.0
56790.0,STARLINK-6345,PAYLOAD,2024-06-24 03:22:17,14.98338347,0.000269,70.0002,76.6982,266.1318,93.9534,6.684e-05,7.05e-06,0.0,0 STARLINK-6345,1 56790U 23078Z   24176.14048422  .00000705  00000-0  66840-4 0  9992,2 56790  70.0002  76.6982 0002690 266.1318  93.9534 14.98338347 60526,6950.167,96.106,573.902,570.162,0.0
56790.0,STARLINK-6345,PAYLOAD,2024-06-24 19:23:39,14.98328142,0.0002537,70.0006,75.0156,263.4387,96.6483,-3.6291e-06,-1.36e-06,0.0,0 STARLINK-6345,1 56790U 23078Z   24176.80809109 -.00000136  00000-0 -36291-5 0  9990,2 56790  70.0006  75.0156 0002537 263.4387  96.6483 14.98328142 60628,6950.199,96.107,573.827,570.3,0.0
